STARLINK-1480
1 25741C 20038M   21325.16928899  .00005689  00000-0  38122-3 0  3259
2 25741  53.0542  82.4780 0001180  71.6312 153.1924 15.06386043    13
